TIANMU-1 07             
1 57399U 23101A   26065.57454230  .00008352  00000+0  29795-3 0  9991
2 57399  97.2728 118.5929 0004609 142.4105 217.7458 15.29118809145964
STARLINK-32622          
1 61927U 24207R   26068.93214615  .00029567  00000+0  10789-2 0  9998
2 61927  42.9991 279.9830 0000895 273.3347  86.7402 15.27602488 74764
